{
  "clients": [
  {
    "id": 1,
    "clientId": "7373238e-368f-40f8-acac-f6334cc5e3ce",
    "clientName": "Santander Bank",
    "locations": [{
      "locationId": 1,
      "name": "Abata",
      "code": "625",
      "address": "206 Gina Circle",
      "city": "Lansing",
      "state": "MI",
      "zip": 48956
    }, {
      "locationId": 2,
      "name": "Eimbee",
      "code": "525",
      "address": "37511 Golf View Hill",
      "city": "Garden Grove",
      "state": "CA",
      "zip": 92645
    }, {
      "locationId": 3,
      "name": "Dazzlesphere",
      "code": "787",
      "address": "2876 Corscot Trail",
      "city": "Oklahoma City",
      "state": "OK",
      "zip": 73124
    }, {
      "locationId": 4,
      "name": "Quatz",
      "code": "394",
      "address": "36254 Pearson Court",
      "city": "Pompano Beach",
      "state": "FL",
      "zip": 33075
    }, {
      "locationId": 5,
      "name": "Kwinu",
      "code": "791",
      "address": "76 Donald Circle",
      "city": "Carlsbad",
      "state": "CA",
      "zip": 92013
    }, {
      "locationId": 6,
      "name": "Janyx",
      "code": "74",
      "address": "75256 Myrtle Way",
      "city": "Memphis",
      "state": "TN",
      "zip": 38161
    }, {
      "locationId": 7,
      "name": "Voonder",
      "code": "710",
      "address": "3104 Swallow Way",
      "city": "Fullerton",
      "state": "CA",
      "zip": 92640
    }, {
      "locationId": 8,
      "name": "Oyope",
      "code": "694",
      "address": "3052 Briar Crest Street",
      "city": "Boston",
      "state": "MA",
      "zip": 12104
    }, {
      "locationId": 9,
      "name": "Youbridge",
      "code": "429",
      "address": "839 Darwin Pass",
      "city": "Newport Beach",
      "state": "CA",
      "zip": 92662
    }, {
      "locationId": 10,
      "name": "Photobean",
      "code": "458",
      "address": "1 Knutson Park",
      "city": "Shawnee Mission",
      "state": "KS",
      "zip": 66211
    }]
  },
  {
    "id": 2,
    "clientId": "1111238e-368f-40f8-acac-f6334cc5e3ce",
    "clientName": "American Bank",
    "locations": [
      {
        "locationId": 11,
        "name": "Janyx",
        "code": "791",
        "address": "75256 Myrtle Way",
        "city": "Memphis",
        "state": "TN",
        "zip": 38166
      }, {
        "locationId": 12,
        "name": "Voonder",
        "code": "799",
        "address": "3104 Swallow Way",
        "city": "Fullerton",
        "state": "CA",
        "zip": 92641
      }, {
        "locationId": 18,
        "name": "Oyope",
        "code": "612",
        "address": "3052 Briar Crest Street",
        "city": "Boston",
        "state": "MA",
        "zip": 32106
      }, {
        "locationId": 19,
        "name": "Youbridge",
        "code": "10001",
        "address": "839 Darwin Pass",
        "city": "Newport Beach",
        "state": "CA",
        "zip": 92664
      }  
    ]
  }
]
}
